{
  "norad_id": 65496,
  "name": "STARLINK-35212",
  "history": [
    {
      "epoch": "2026-03-28T15:56:30.659136",
      "apogee_km": 476.0106083791343,
      "perigee_km": 474.3052344708876,
      "latitude_deg": 9.389331411334188,
      "longitude_deg": 73.36739904014394,
      "semi_major_axis_km": 6853.294921425011,
      "eccentricity": 0.00012442,
      "inclination_deg": 53.16,
      "raan_deg": 182.9678,
      "arg_perigee_deg": 81.2993,
      "mean_anomaly_deg": 278.8149,
      "mean_motion_rev_day": 15.3021914
    },
    {
      "epoch": "2026-03-28T23:46:46.764192",
      "apogee_km": 476.19506712191287,
      "perigee_km": 474.184301072798,
      "latitude_deg": 50.19973609505122,
      "longitude_deg": 104.71862688031979,
      "semi_major_axis_km": 6853.326684097356,
      "eccentricity": 0.0001467,
      "inclination_deg": 53.1594,
      "raan_deg": 181.4508,
      "arg_perigee_deg": 84.6369,
      "mean_anomaly_deg": 275.4799,
      "mean_motion_rev_day": 15.30208502
    }
  ]
}